{"type": "FeatureCollection", "features": [ {"type": "Feature", "properties": {"norad_id": 51444, "name": "CSG-2", "group": "resource", "lat": 34.105876727249395, "lon": 158.9791867299943, "alt_km": 619.7184185580654, "timestamp": "2025-12-08T23:34:03.627406+00:00", "meta": {"OBJECT_NAME": "CSG-2", "OBJECT_ID": "2022-008A", "EPOCH": "2025-12-08T13:41:28.120704", "MEAN_MOTION": 14.82157714, "ECCENTRICITY": 0.00014895, "INCLINATION": 97.8812, "RA_OF_ASC_NODE": 163.9566, "ARG_OF_PERICENTER": 87.8125, "MEAN_ANOMALY": 272.3258, "EPHEMERIS_TYPE": 0, "CLASSIFICATION_TYPE": "U", "NORAD_CAT_ID": 51444, "ELEMENT_SET_NO": 999, "REV_AT_EPOCH": 20835, "BSTAR": 0.00012421833, "MEAN_MOTION_DOT": 9.37e-06, "MEAN_MOTION_DDOT": 0}, "tle": {"line1": "1 51444U 22008A   25342.57046436  .00000937  00000+0  12422-3 0  9993", "line2": "2 51444  97.8812 163.9566 0001489  87.8125 272.3258 14.82157714208351"}}, "geometry": {"type": "Point", "coordinates": [158.9791867299943, 34.105876727249395]}}, {"type": "Feature", "properties": {"norad_id": 52912, "name": "GAOFEN-12 03", "group": "resource", "lat": -14.313308496992088, "lon": -127.565350740605, "alt_km": 635.07270107166, "timestamp": "2025-12-08T23:34:03.627419+00:00", "meta": {"OBJECT_NAME": "GAOFEN-12 03", "OBJECT_ID": "2022-069A", "EPOCH": "2025-12-08T15:31:03.213408", "MEAN_MOTION": 14.7959543, "ECCENTRICITY": 0.00022487, "INCLINATION": 97.8491, "RA_OF_ASC_NODE": 230.09, "ARG_OF_PERICENTER": 69.3142, "MEAN_ANOMALY": 290.8311, "EPHEMERIS_TYPE": 0, "CLASSIFICATION_TYPE": "U", "NORAD_CAT_ID": 52912, "ELEMENT_SET_NO": 999, "REV_AT_EPOCH": 18643, "BSTAR": 0.00030187953, "MEAN_MOTION_DOT": 2.211e-05, "MEAN_MOTION_DDOT": 0}, "tle": {"line1": "1 52912U 22069A   25342.64656497  .00002211  00000+0  30188-3 0  9999", "line2": "2 52912  97.8491 230.0900 0002248  69.3142 290.8311 14.79595430186437"}}, "geometry": {"type": "Point", "coordinates": [-127.565350740605, -14.313308496992088]}}, {"type": "Feature", "properties": {"norad_id": 54754, "name": "SWOT", "group": "resource", "lat": -45.9598799788872, "lon": -81.07588648249515, "alt_km": 900.002255787881, "timestamp": "2025-12-08T23:34:03.627430+00:00", "meta": {"OBJECT_NAME": "SWOT", "OBJECT_ID": "2022-173A", "EPOCH": "2025-12-08T13:30:15.162336", "MEAN_MOTION": 14.00173825, "ECCENTRICITY": 3.425e-05, "INCLINATION": 77.6102, "RA_OF_ASC_NODE": 292.6285, "ARG_OF_PERICENTER": 123.8896, "MEAN_ANOMALY": 236.2288, "EPHEMERIS_TYPE": 0, "CLASSIFICATION_TYPE": "U", "NORAD_CAT_ID": 54754, "ELEMENT_SET_NO": 999, "REV_AT_EPOCH": 15247, "BSTAR": 9.2838011e-05, "MEAN_MOTION_DOT": 1.34e-06, "MEAN_MOTION_DDOT": 0}, "tle": {"line1": "1 54754U 22173A   25342.56267549  .00000134  00000+0  92838-4 0  9991", "line2": "2 54754  77.6102 292.6285 0000342 123.8896 236.2288 14.00173825152471"}}, "geometry": {"type": "Point", "coordinates": [-81.07588648249515, -45.9598799788872]}}, {"type": "Feature", "properties": {"norad_id": 57654, "name": "GAOFEN-12 04", "group": "resource", "lat": 25.556452012797173, "lon": 82.6091905919516, "alt_km": 629.3918174089749, "timestamp": "2025-12-08T23:34:03.627440+00:00", "meta": {"OBJECT_NAME": "GAOFEN-12 04", "OBJECT_ID": "2023-123A", "EPOCH": "2025-12-08T14:45:32.307264", "MEAN_MOTION": 14.79682375, "ECCENTRICITY": 0.00013978, "INCLINATION": 97.912, "RA_OF_ASC_NODE": 258.4348, "ARG_OF_PERICENTER": 73.3922, "MEAN_ANOMALY": 286.7443, "EPHEMERIS_TYPE": 0, "CLASSIFICATION_TYPE": "U", "NORAD_CAT_ID": 57654, "ELEMENT_SET_NO": 999, "REV_AT_EPOCH": 12444, "BSTAR": 0.00035702909, "MEAN_MOTION_DOT": 2.629e-05, "MEAN_MOTION_DDOT": 0}, "tle": {"line1": "1 57654U 23123A   25342.61495726  .00002629  00000+0  35703-3 0  9993", "line2": "2 57654  97.9120 258.4348 0001397  73.3922 286.7443 14.79682375124448"}}, "geometry": {"type": "Point", "coordinates": [82.6091905919516, 25.556452012797173]}}, {"type": "Feature", "properties": {"norad_id": 59065, "name": "PARS 1", "group": "resource", "lat": 80.36955990760953, "lon": -96.754140861088, "alt_km": 427.56534542605186, "timestamp": "2025-12-08T23:34:03.627462+00:00", "meta": {"OBJECT_NAME": "PARS 1", "OBJECT_ID": "2024-039Q", "EPOCH": "2025-12-08T15:24:45.087264", "MEAN_MOTION": 15.40835928, "ECCENTRICITY": 0.00126841, "INCLINATION": 97.4637, "RA_OF_ASC_NODE": 313.4886, "ARG_OF_PERICENTER": 84.3745, "MEAN_ANOMALY": 275.8947, "EPHEMERIS_TYPE": 0, "CLASSIFICATION_TYPE": "U", "NORAD_CAT_ID": 59065, "ELEMENT_SET_NO": 999, "REV_AT_EPOCH": 9925, "BSTAR": 0.0003653262, "MEAN_MOTION_DOT": 0.00014947, "MEAN_MOTION_DDOT": 0}, "tle": {"line1": "1 59065U 24039Q   25342.64218851  .00014947  00000+0  36533-3 0  9991", "line2": "2 59065  97.4637 313.4886 0012684  84.3745 275.8947 15.40835928 99250"}}, "geometry": {"type": "Point", "coordinates": [-96.754140861088, 80.36955990760953]}}, {"type": "Feature", "properties": {"norad_id": 59371, "name": "RESURS-P 4", "group": "resource", "lat": -14.478697874556461, "lon": -68.72607076336534, "alt_km": 474.0090088326024, "timestamp": "2025-12-08T23:34:03.627474+00:00", "meta": {"OBJECT_NAME": "RESURS-P 4", "OBJECT_ID": "2024-061A", "EPOCH": "2025-12-08T14:13:33.222432", "MEAN_MOTION": 15.32035918, "ECCENTRICITY": 0.00018123, "INCLINATION": 97.2544, "RA_OF_ASC_NODE": 289.0077, "ARG_OF_PERICENTER": 53.3675, "MEAN_ANOMALY": 306.7733, "EPHEMERIS_TYPE": 0, "CLASSIFICATION_TYPE": "U", "NORAD_CAT_ID": 59371, "ELEMENT_SET_NO": 999, "REV_AT_EPOCH": 9457, "BSTAR": 0.00019955987, "MEAN_MOTION_DOT": 6.096e-05, "MEAN_MOTION_DDOT": 0}, "tle": {"line1": "1 59371U 24061A   25342.59274563  .00006096  00000+0  19956-3 0  9998", "line2": "2 59371  97.2544 289.0077 0001812  53.3675 306.7733 15.32035918 94573"}}, "geometry": {"type": "Point", "coordinates": [-68.72607076336534, -14.478697874556461]}}, {"type": "Feature", "properties": {"norad_id": 59625, "name": "LEGION 1", "group": "resource", "lat": 60.46203034979624, "lon": 44.16912171398844, "alt_km": 510.70421129983333, "timestamp": "2025-12-08T23:34:03.627484+00:00", "meta": {"OBJECT_NAME": "LEGION 1", "OBJECT_ID": "2024-081A", "EPOCH": "2025-12-08T15:22:47.307648", "MEAN_MOTION": 15.16418278, "ECCENTRICITY": 0.00042985, "INCLINATION": 97.5213, "RA_OF_ASC_NODE": 57.3144, "ARG_OF_PERICENTER": 334.8011, "MEAN_ANOMALY": 25.3012, "EPHEMERIS_TYPE": 0, "CLASSIFICATION_TYPE": "U", "NORAD_CAT_ID": 59625, "ELEMENT_SET_NO": 999, "REV_AT_EPOCH": 8865, "BSTAR": 0.00040875722, "MEAN_MOTION_DOT": 7.881e-05, "MEAN_MOTION_DDOT": 0}, "tle": {"line1": "1 59625U 24081A   25342.64082532  .00007881  00000+0  40876-3 0  9999", "line2": "2 59625  97.5213  57.3144 0004298 334.8011  25.3012 15.16418278 88656"}}, "geometry": {"type": "Point", "coordinates": [44.16912171398844, 60.46203034979624]}}, {"type": "Feature", "properties": {"norad_id": 59626, "name": "LEGION 2", "group": "resource", "lat": -60.085300919942526, "lon": -135.53654729637387, "alt_km": 522.3431504917799, "timestamp": "2025-12-08T23:34:03.627495+00:00", "meta": {"OBJECT_NAME": "LEGION 2", "OBJECT_ID": "2024-081B", "EPOCH": "2025-12-08T14:35:22.779456", "MEAN_MOTION": 15.16430889, "ECCENTRICITY": 0.0005885, "INCLINATION": 97.5217, "RA_OF_ASC_NODE": 57.3687, "ARG_OF_PERICENTER": 311.2899, "MEAN_ANOMALY": 48.7827, "EPHEMERIS_TYPE": 0, "CLASSIFICATION_TYPE": "U", "NORAD_CAT_ID": 59626, "ELEMENT_SET_NO": 999, "REV_AT_EPOCH": 8865, "BSTAR": 0.0004047798, "MEAN_MOTION_DOT": 7.808e-05, "MEAN_MOTION_DDOT": 0}, "tle": {"line1": "1 59626U 24081B   25342.60790254  .00007808  00000+0  40478-3 0  9990", "line2": "2 59626  97.5217  57.3687 0005885 311.2899  48.7827 15.16430889 88654"}}, "geometry": {"type": "Point", "coordinates": [-135.53654729637387, -60.085300919942526]}}, {"type": "Feature", "properties": {"norad_id": 60182, "name": "ALOS-4 (DAICHI-4)", "group": "resource", "lat": 37.16524708871178, "lon": 71.82261565529978, "alt_km": 627.8404370776561, "timestamp": "2025-12-08T23:34:03.627508+00:00", "meta": {"OBJECT_NAME": "ALOS-4 (DAICHI-4)", "OBJECT_ID": "2024-123A", "EPOCH": "2025-12-08T13:39:33.403104", "MEAN_MOTION": 14.79477761, "ECCENTRICITY": 0.00013842, "INCLINATION": 97.9228, "RA_OF_ASC_NODE": 77.4758, "ARG_OF_PERICENTER": 99.4773, "MEAN_ANOMALY": 260.6595, "EPHEMERIS_TYPE": 0, "CLASSIFICATION_TYPE": "U", "NORAD_CAT_ID": 60182, "ELEMENT_SET_NO": 999, "REV_AT_EPOCH": 7769, "BSTAR": 0.00052830043, "MEAN_MOTION_DOT": 3.897e-05, "MEAN_MOTION_DDOT": 0}, "tle": {"line1": "1 60182U 24123A   25342.56913661  .00003897  00000+0  52830-3 0  9999", "line2": "2 60182  97.9228  77.4758 0001384  99.4773 260.6595 14.79477761 77694"}}, "geometry": {"type": "Point", "coordinates": [71.82261565529978, 37.16524708871178]}}, {"type": "Feature", "properties": {"norad_id": 60452, "name": "LEGION 3", "group": "resource", "lat": -44.766477962401616, "lon": -126.75723114572813, "alt_km": 521.9676155558236, "timestamp": "2025-12-08T23:34:03.627519+00:00", "meta": {"OBJECT_NAME": "LEGION 3", "OBJECT_ID": "2024-146A", "EPOCH": "2025-12-08T11:19:55.079328", "MEAN_MOTION": 15.15692656, "ECCENTRICITY": 0.00143867, "INCLINATION": 45.0027, "RA_OF_ASC_NODE": 333.0094, "ARG_OF_PERICENTER": 175.3215, "MEAN_ANOMALY": 184.78, "EPHEMERIS_TYPE": 0, "CLASSIFICATION_TYPE": "U", "NORAD_CAT_ID": 60452, "ELEMENT_SET_NO": 999, "REV_AT_EPOCH": 7308, "BSTAR": 0.00038734549, "MEAN_MOTION_DOT": 7.26e-05, "MEAN_MOTION_DDOT": 0}, "tle": {"line1": "1 60452U 24146A   25342.47216527  .00007260  00000+0  38735-3 0  9997", "line2": "2 60452  45.0027 333.0094 0014386 175.3215 184.7800 15.15692656 73087"}}, "geometry": {"type": "Point", "coordinates": [-126.75723114572813, -44.766477962401616]}}]}